[{"OBJECT_NAME":"STARLINK-31290","OBJECT_ID":"2024-041M","EPOCH":"2026-03-09T00:25:18.892992","MEAN_MOTION":15.27576822,"ECCENTRICITY":0.00012823,"INCLINATION":43.0032,"RA_OF_ASC_NODE":300.2318,"ARG_OF_PERICENTER":262.0097,"MEAN_ANOMALY":98.061,"EPHEMERIS_TYPE":0,"CLASSIFICATION_TYPE":"U","NORAD_CAT_ID":59085,"ELEMENT_SET_NO":999,"REV_AT_EPOCH":11447,"BSTAR":-4.5297331e-5,"MEAN_MOTION_DOT":-1.508e-5,"MEAN_MOTION_DDOT":0},{"OBJECT_NAME":"COSMOS 2251 DEB","OBJECT_ID":"1993-036SV","EPOCH":"2026-03-09T21:55:42.811680","MEAN_MOTION":15.15006345,"ECCENTRICITY":0.00579573,"INCLINATION":74.0283,"RA_OF_ASC_NODE":1.8812,"ARG_OF_PERICENTER":55.6817,"MEAN_ANOMALY":304.9843,"EPHEMERIS_TYPE":0,"CLASSIFICATION_TYPE":"U","NORAD_CAT_ID":34452,"ELEMENT_SET_NO":999,"REV_AT_EPOCH":91981,"BSTAR":0.0011020825,"MEAN_MOTION_DOT":0.00021495,"MEAN_MOTION_DDOT":0}]
